LANDSAT 5               
1 14780U 84021A   09122.87069118 -.00000710  00000-0 -14752-3 0  6167
2 14780  98.2454 190.8647 0001808 234.6225 125.4802 14.57088770338788
SPOT 2                  
1 20436U 90005A   09122.84289850 -.00000012  00000-0  14644-4 0  3066
2 20436  98.6652 193.8484 0001021  83.5918  50.9684 14.20059924999250
ERS-2                   
1 23560U 95021A   09122.78620201  .00000034  00000-0  28642-4 0   504
2 23560  98.5559 198.5886 0000990  80.5086 279.6203 14.32241961733712
RADARSAT-1              
1 23710U 95059A   09123.09714601  .00000214  00000-0  10000-3 0  1795
2 23710  98.5806 130.5339 0001285  93.4662   5.6594 14.29977413704367
TOMS EP                 
1 23940U 96037A   09122.07627673  .00000074  00000-0  28589-4 0   511
2 23940  98.0362 356.3165 0030194 136.7550 223.6040 14.52236747682735
MIDORI (ADEOS)          
1 24277U 96046A   09122.49673283 -.00000035  00000-0  27567-5 0   489
2 24277  98.3599  88.9814 0002068  60.1993 299.9394 14.28595537662401
ORBVIEW 2 (SEASTAR)     
1 24883U 97037A   09122.15611059 -.00000051  00000-0 -70990-6 0  7798
2 24883  98.3372 245.7775 0001819  28.1287 331.9989 14.59985617625722
IRS-1D                  
1 24971U 97057A   09122.83185560  .00000019  00000-0  21579-4 0  2521
2 24971  98.2416 161.1387 0055408  70.4972 290.2187 14.32969198606332
TRMM                    
1 25063U 97074A   09122.49828160  .00003147  00000-0  44604-4 0   533
2 25063  34.9667 280.7287 0001035 293.4298  66.6344 15.55934683652970
SPOT 4                  
1 25260U 98017A   09122.83160095  .00000124  00000-0  78917-4 0   653
2 25260  98.6994 196.4173 0001183  68.0832  68.8230 14.20040813575897
FASAT B                 
1 25395U 98043B   09122.60281491  .00000050  00000-0  39178-4 0  4401
2 25395  98.3424 156.0342 0003071   2.0776 358.0410 14.24343705561950
TECHSAT 1B (GO-32)      
1 25397U 98043D   09122.02192836  .00000051  00000-0  40580-4 0  8823
2 25397  98.3292 146.8297 0001912  56.9168 303.2194 14.23158259561561
LANDSAT 7               
1 25682U 99020A   09122.76970646  .00000022  00000-0  14905-4 0  7065
2 25682  98.2097 191.4357 0001511  74.3927 285.7438 14.57109103534460
KITSAT 3                
1 25756U 99029A   09122.14934894 -.00000094  00000-0 -11113-4 0  8962
2 25756  98.6669 313.4711 0013190 315.4906  44.5265 14.52532140526470
DLR-TUBSAT              
1 25757U 99029B   09122.76420420  .00000066  00000-0  29050-4 0  7310
2 25757  98.6847 304.8053 0013878 342.0291  18.0417 14.50839223526125
IRS-P4 (OCEANSAT 1)     
1 25758U 99029C   09122.82326777 -.00000225  00000-0 -45958-4 0  1372
2 25758  98.2720 218.5346 0001704  55.7438 304.3837 14.50859505526283
QUIKSCAT                
1 25789U 99034A   09122.44270458 -.00000037  00000-0  26679-5 0  4175
2 25789  98.6346 312.1935 0001388  61.2211 298.9110 14.26785277513936
IKONOS 2                
1 25919U 99051A   09122.76861385 -.00000075  00000-0 -53348-5 0  8269
2 25919  98.1036 198.7446 0000967 110.2442 249.8861 14.64449632513415
CBERS 1 (ZY 1A)         
1 25940U 99057A   09122.80168443  .00000036  00000-0  27301-4 0  7475
2 25940  98.1574 130.6981 0004372 207.6091 152.4862 14.34447735500303
TERRA                   
1 25994U 99068A   09122.78915676  .00000073  00000-0  26220-4 0  6436
2 25994  98.2018 198.4698 0001411 112.3971 247.7368 14.57116841498540
ARIRANG 1 (KOMPSAT-1)   
1 26032U 99070A   09122.82587144  .00000075  00000-0  22263-4 0  7990
2 26032  97.9279   5.0970 0005751  32.1379 328.0178 14.65598289500845
EO-1                    
1 26619U 00075A   09122.78970016 -.00001157  00000-0 -22222-3 0   134
2 26619  98.1442 190.8186 0010670  89.8984 270.3420 14.61840354449637
SAC C                   
1 26620U 00075B   09122.43889906 -.00000005  00000-0  84210-5 0  7049
2 26620  97.9127 157.5063 0001515  97.8871 262.2488 14.56564309449015
EROS A1                 
1 26631U 00079A   09122.85150478  .00000910  00000-0  48189-4 0  7673
2 26631  97.4907 188.6054 0010235 136.3504 328.4278 15.17915104467646
QUICKBIRD 2             
1 26953U 01047A   09122.98114354  .00000121  00000-0  50301-5 0    96
2 26953  97.1487 200.6502 0002549  83.0717  22.5911 15.39858107423651
TES                     
1 26957U 01049A   09122.76238768 -.00000524  00000-0 -35862-4 0   356
2 26957  97.5738 201.6935 0025045 345.7808  14.2698 15.01294076412391
JASON 1                 
1 26997U 01055A   09121.37015871 -.00000038  00000-0  10000-3 0   200
2 26997  66.0402 167.7254 0007933 266.5154  93.4925 12.80929358346042
METEOR-3M               
1 27001U 01056A   09122.56032210 -.00000021  00000-0  24714-4 0  4064
2 27001  99.2684 339.9217 0013876 153.4177 206.7685 13.68711784369274
BADR-B                  
1 27003U 01056C   09122.16867176  .00000116  00000-0  17993-3 0  2757
2 27003  99.2562 345.7710 0018494 157.4533 202.7428 13.70100988369659
MAROC-TUBSAT            
1 27004U 01056D   09121.78060695  .00000023  00000-0  74373-4 0  2940
2 27004  99.2541 344.7492 0019595 160.2932 199.8974 13.70027403369574
ENVISAT                 
1 27386U 02009A   09122.83446639  .00000020  00000-0  23583-4 0  9216
2 27386  98.5495 190.8612 0001199  88.2490 271.8829 14.32247646375007
SPOT 5                  
1 27421U 02021A   09122.78505850 -.00000689  00000-0 -30347-3 0  9909
2 27421  98.7763 196.0894 0001311 107.1679 252.9645 14.19997106362722
AQUA                    
1 27424U 02022A   09122.26195735 -.00000371  00000-0 -72446-4 0  2743
2 27424  98.1818  65.3969 0000642  42.9432 317.1823 14.57119847372071
HAIYANG-1A              
1 27430U 02024A   09122.22684873  .00000041  00000-0  32675-4 0   519
2 27430  98.4862 189.5351 0008150 211.2709 148.7989 14.29698779363508
ALSAT 1                 
1 27559U 02054A   09122.82764887  .00096273  00000-0  17070-1 0  3013
2 27559  97.9501 358.9583 0011327 129.3026 230.9176 14.66640306343069
MIDORI II (ADEOS-II)    
1 27597U 02056A   09122.25403008 -.00000027  00000-0  62869-5 0  8444
2 27597  98.4757 188.2247 0001785  70.7858 289.3494 14.26162663332240
ICESAT                  
1 27642U 03002A   09122.87004985  .00000181  00000-0  19722-4 0  2045
2 27642  94.0030 269.7683 0003490  61.5490 298.6088 14.90870579342911
ORBVIEW 3               
1 27838U 03030A   09122.79922822  .00001716  00000-0  44227-4 0  5498
2 27838  97.0606 183.1169 0001298 113.6268 355.7608 15.40526901328419
IRS-P6 (RESOURCESAT-1)  
1 28051U 03046A   09122.85689497  .00000012  00000-0  25562-4 0  5486
2 28051  98.7153 199.2786 0000959 279.6084  80.4987 14.21627193287674
CBERS 2 (ZY 1B)         
1 28057U 03049A   09122.82092402 -.00000049  00000-0 -25046-5 0  3394
2 28057  98.2858 176.7773 0002580 110.5825 249.5626 14.34905434289896
TANSUO 1                
1 28220U 04012A   09122.14414384  .00000128  00000-0  19222-4 0  1874
2 28220  97.4985 162.0526 0011736 353.8653   6.2542 14.88640123273560
FORMOSAT-2 (ROCSAT 2)   
1 28254U 04018A   09122.85447457  .00000107  00000-0  10000-3 0  6317
2 28254  98.8621 184.0074 0002619  83.7013  44.3907 14.00830798253176
AURA                    
1 28376U 04026A   09121.99293547  .00000730  00000-0  17193-3 0  4886
2 28376  98.1855  67.2949 0000758  77.0015 283.1203 14.57134813255087
PARASOL                 
1 28498U 04049G   09122.88186623  .00000134  00000-0  39885-4 0  4039
2 28498  98.2701  66.1213 0001373  92.9180 267.2210 14.57121168232487
IRS-P5 (CARTOSAT-1)     
1 28649U 05017A   09122.79231482  .00000070  00000-0  15206-4 0  5229
2 28649  97.8692 196.5334 0001127 113.6330 246.4999 14.82658740216132
TOPSAT                  
1 28891U 05043B   09122.79241069 -.00000028  00000-0  36961-5 0  9522
2 28891  98.0577  13.9578 0018158 127.8901 232.3943 14.59759057187240
SINAH 1                 
1 28893U 05043D   09122.70898306  .00000016  00000-0  12828-4 0  8897
2 28893  98.0600  14.7478 0016326 127.2313 233.0380 14.60071890187273
ALOS (DAICHI)           
1 28931U 06002A   09122.82999104  .00000110  00000-0  32841-4 0  6864
2 28931  98.1911 198.5243 0001298  95.1770 264.9576 14.59553074174289
EROS B                  
1 29079U 06014A   09122.84878869  .00001103  00000-0  51363-4 0  4172
2 29079  97.4384 244.3804 0006955 181.5665 294.3698 15.22011059167625
RSS-1 (YAOGAN 1)        
1 29092U 06015A   09122.80166346 -.00000000  00000-0  66157-5 0  3830
2 29092  97.8378 118.0227 0001022  50.0165 310.1136 14.80314468163058
RESURS-DK 1             
1 29228U 06021A   09122.77879488  .00000474  00000-0  13857-4 0  2495
2 29228  69.9323 133.0978 0165040 245.2459 113.1474 15.32257905161373
ARIRANG 2 (KOMPSAT-2)   
1 29268U 06031A   09122.79126812  .00000052  00000-0  19713-4 0   877
2 29268  98.0465  16.6501 0016873 291.6308  68.3094 14.61703946147456
LAPAN-TUBSAT            
1 29709U 07001A   09122.77585771 -.00000020  00000-0  40665-5 0  5609
2 29709  97.8174 179.5791 0014780  72.7946 287.4881 14.80249425124766
CARTOSAT-2 (IRS-P7)     
1 29710U 07001B   09122.77806008  .00000033  00000-0  11353-4 0  5637
2 29710  97.8859 184.2339 0001710 120.9369 239.2007 14.78668796124671
HAIYANG-1B              
1 31113U 07010A   09122.79055673  .00000212  00000-0  10000-3 0  3008
2 31113  98.5469 197.2586 0013264 194.9506 165.1284 14.29421990107455
COSMO-SKYMED 1          
1 31598U 07023A   09122.82948952 -.00000000  00000-0  65237-5 0  1305
2 31598  97.8669 312.3844 0001417  85.2833 274.8546 14.82164913102907
TERRASAR-X              
1 31698U 07026A   09122.82399502  .00000188  00000-0  12132-4 0   973
2 31698  97.4450 130.8766 0001609  81.7929  42.1734 15.19151912104383
WORLDVIEW-1 (WV-1)      
1 32060U 07041A   09122.80478728  .00000456  00000-0  21488-4 0  8116
2 32060  97.4312 200.6275 0001170  59.7321  81.4151 15.24446165 90172
CBERS 2B                
1 32062U 07042A   09122.76763314  .00000007  00000-0  17472-4 0  8066
2 32062  98.4859 199.4068 0001117  61.1849 298.9442 14.35442628 84889
